[{"OBJECT_NAME":"STARLINK-32568","OBJECT_ID":"2024-222Q","EPOCH":"2026-03-09T12:52:12.874368","MEAN_MOTION":15.27570226,"ECCENTRICITY":0.00012064,"INCLINATION":42.9983,"RA_OF_ASC_NODE":137.2058,"ARG_OF_PERICENTER":271.2588,"MEAN_ANOMALY":88.8126,"EPHEMERIS_TYPE":0,"CLASSIFICATION_TYPE":"U","NORAD_CAT_ID":62128,"ELEMENT_SET_NO":999,"REV_AT_EPOCH":7246,"BSTAR":0.0014200614,"MEAN_MOTION_DOT":0.0003901,"MEAN_MOTION_DDOT":0},{"OBJECT_NAME":"TEVEL2-2","OBJECT_ID":"2025-052K","EPOCH":"2026-03-09T15:33:48.895776","MEAN_MOTION":15.30343745,"ECCENTRICITY":0.0004693,"INCLINATION":97.3987,"RA_OF_ASC_NODE":324.77,"ARG_OF_PERICENTER":105.793,"MEAN_ANOMALY":254.3828,"EPHEMERIS_TYPE":0,"CLASSIFICATION_TYPE":"U","NORAD_CAT_ID":63219,"ELEMENT_SET_NO":999,"REV_AT_EPOCH":5485,"BSTAR":0.00069428,"MEAN_MOTION_DOT":0.00020339,"MEAN_MOTION_DDOT":0}]
